     2              NAVIGATION DATA                         RINEX VERSION / TYPE
CCRINEXN V1.6.0 UX  CDDIS               19-OCT-16 15:33     PGM / RUN BY / DATE 
IGS BROADCAST EPHEMERIS FILE                                COMMENT             
    0.1211D-07  0.0000D+00 -0.1192D-06  0.0000D+00          ION ALPHA           
    0.9421D+05  0.0000D+00 -0.1966D+06  0.0000D+00          ION BETA            
    0.000000000000D+00-0.177635683940D-14   405504     1919 DELTA-UTC: A0,A1,T,W
    17                                                      LEAP SECONDS        
                                                            END OF HEADER       
 6 16 10 18 20  0  0.0 0.261305831373D-03 0.500222085975D-11 0.000000000000D+00
    0.128000000000D+03 0.250000000000D+02 0.479162816198D-08-0.666172885415D+00
    0.128336250782D-05 0.204418320209D-03 0.771321356297D-05 0.515377977371D+04
    0.244800000000D+06-0.745058059692D-08 0.148425863374D+01-0.409781932831D-07
    0.964889211852D+00 0.236250000000D+03-0.168604482875D+01-0.811248077453D-08
    0.584310053145D-09 0.100000000000D+01 0.191900000000D+04 0.000000000000D+00
    0.200000000000D+01 0.000000000000D+00 0.419095158577D-08 0.128000000000D+03
    0.237600000000D+06 0.400000000000D+01 0.000000000000D+00 0.000000000000D+00
 7 16 10 18 20  0  0.0 0.418355222791D-03-0.318323145621D-11 0.000000000000D+00
    0.220000000000D+02 0.114218750000D+03 0.456233289662D-08-0.192296184427D+01
    0.580400228500D-05 0.100553983357D-01 0.413134694099D-05 0.515362760162D+04
    0.244800000000D+06 0.391155481338D-07-0.163202947086D+01-0.162050127983D-06
    0.964492232939D+00 0.302343750000D+03-0.262091742810D+01-0.828570227562D-08
    0.376444251843D-09 0.100000000000D+01 0.191900000000D+04 0.000000000000D+00
    0.200000000000D+01 0.000000000000D+00-0.111758708954D-07 0.220000000000D+02
    0.237600000000D+06 0.400000000000D+01 0.000000000000D+00 0.000000000000D+00
 8 16 10 18 20  0  0.0-0.358941033483D-04-0.125055521494D-11 0.000000000000D+00
    0.450000000000D+02-0.875312500000D+02 0.402302471799D-08 0.166107168338D+01
   -0.446662306786D-05 0.184169411659D-02 0.129975378513D-04 0.515377435493D+04
    0.244800000000D+06 0.745058059692D-07 0.431131089495D+00 0.558793544769D-08
    0.964930577323D+00 0.129187500000D+03-0.101144548546D+01-0.777889545079D-08
    0.202865593023D-09 0.100000000000D+01 0.191900000000D+04 0.000000000000D+00
    0.200000000000D+01 0.000000000000D+00 0.512227416039D-08 0.450000000000D+02
    0.237600000000D+06 0.400000000000D+01 0.000000000000D+00 0.000000000000D+00
 9 16 10 18 20  0  0.0 0.227599404752D-03 0.727595761418D-11 0.000000000000D+00
    0.230000000000D+02 0.635625000000D+02 0.439839749662D-08 0.963934754357D+00
    0.317953526974D-05 0.617646262981D-03 0.134501606226D-04 0.515377264404D+04
    0.244800000000D+06-0.204890966415D-07-0.271066632728D+01-0.540167093277D-07
    0.954810585499D+00 0.115125000000D+03 0.188995867719D+01-0.788854287519D-08
   -0.341799951626D-09 0.100000000000D+01 0.191900000000D+04 0.000000000000D+00
    0.200000000000D+01 0.000000000000D+00 0.139698386192D-08 0.230000000000D+02
    0.237600000000D+06 0.400000000000D+01 0.000000000000D+00 0.000000000000D+00
10 16 10 18 20  0  0.0-0.108741689473D-03-0.295585778076D-11 0.000000000000D+00
    0.640000000000D+02-0.365000000000D+02 0.497735018376D-08 0.293563266991D+01
   -0.179000198841D-05 0.181298179086D-02 0.697001814842D-05 0.515367213440D+04
    0.244800000000D+06-0.614672899246D-07 0.253093539098D+01-0.130385160446D-07
    0.959766229270D+00 0.245906250000D+03-0.290356420508D+01-0.818605526777D-08
   -0.420374653149D-09 0.100000000000D+01 0.191900000000D+04 0.000000000000D+00
    0.200000000000D+01 0.000000000000D+00 0.232830643654D-08 0.640000000000D+02
    0.242670000000D+06 0.400000000000D+01 0.000000000000D+00 0.000000000000D+00
11 16 10 18 20  0  0.0-0.667270272970D-03-0.102318153950D-11 0.000000000000D+00
    0.580000000000D+02 0.360312500000D+02 0.591560356256D-08-0.183054005185D+01
    0.216625630856D-05 0.168200973421D-01 0.100638717413D-04 0.515368125915D+04
    0.244800000000D+06 0.257045030594D-06 0.110538010779D+01 0.359490513802D-06
    0.898017228102D+00 0.146968750000D+03 0.158808222241D+01-0.856071391553D-08
    0.733244853723D-09 0.100000000000D+01 0.191900000000D+04 0.000000000000D+00
    0.280000000000D+01 0.000000000000D+00-0.121071934700D-07 0.580000000000D+02
    0.237600000000D+06 0.000000000000D+00 0.000000000000D+00 0.000000000000D+00
12 16 10 18 20  0  0.0 0.389294698834D-03 0.113686837722D-12 0.000000000000D+00
    0.330000000000D+02-0.954375000000D+02 0.387480425829D-08-0.251608455908D+01
   -0.484287738800D-05 0.604449422099D-02 0.436231493950D-05 0.515364520073D+04
    0.244800000000D+06 0.316649675369D-07-0.552379837729D+00-0.763684511185D-07
    0.990161278203D+00 0.309812500000D+03 0.783563430059D+00-0.794854537453D-08
   -0.266082511976D-09 0.100000000000D+01 0.191900000000D+04 0.000000000000D+00
    0.200000000000D+01 0.000000000000D+00-0.125728547573D-07 0.330000000000D+02
    0.237600000000D+06 0.400000000000D+01 0.000000000000D+00 0.000000000000D+00
13 16 10 18 20  0  0.0-0.500790774822D-04-0.204636307899D-11 0.000000000000D+00
    0.490000000000D+02 0.664375000000D+02 0.417338812408D-08-0.917907362206D+00
    0.355206429958D-05 0.401662196964D-02 0.120326876640D-04 0.515369476128D+04
    0.244800000000D+06-0.558793544769D-07-0.258780441635D+01-0.186264514923D-07
    0.971009415948D+00 0.150375000000D+03 0.192898997376D+01-0.787568519676D-08
   -0.178936024832D-09 0.100000000000D+01 0.191900000000D+04 0.000000000000D+00
    0.200000000000D+01 0.000000000000D+00-0.111758708954D-07 0.490000000000D+02
    0.237660000000D+06 0.400000000000D+01 0.000000000000D+00 0.000000000000D+00
14 16 10 18 20  0  0.0-0.407542102039D-04-0.193267624127D-11 0.000000000000D+00
    0.480000000000D+02 0.745625000000D+02 0.435232427876D-08 0.428635324919D+00
    0.392831861973D-05 0.872202683240D-02 0.120922923088D-04 0.515360070801D+04
    0.244800000000D+06-0.502914190292D-07-0.262577048620D+01 0.391155481338D-07
    0.963530510593D+00 0.151000000000D+03-0.194525614380D+01-0.802962052404D-08
   -0.274654299304D-09 0.100000000000D+01 0.191900000000D+04 0.000000000000D+00
    0.200000000000D+01 0.000000000000D+00-0.931322574616D-08 0.480000000000D+02
    0.237600000000D+06 0.000000000000D+00 0.000000000000D+00 0.000000000000D+00
15 16 10 18 20  0  0.0-0.331313349307D-03-0.136424205266D-11 0.000000000000D+00
    0.420000000000D+02 0.390625000000D+02 0.513521390227D-08 0.117481037831D+00
    0.212341547012D-05 0.862624030560D-02 0.116918236017D-04 0.515369127846D+04
    0.244800000000D+06 0.372529029846D-07-0.276677363900D+01 0.117346644402D-06
    0.930513744227D+00 0.135125000000D+03 0.516756934006D+00-0.837677749784D-08
   -0.369658254893D-09 0.100000000000D+01 0.191900000000D+04 0.000000000000D+00
    0.200000000000D+01 0.000000000000D+00-0.107102096081D-07 0.420000000000D+02
    0.238110000000D+06 0.400000000000D+01 0.000000000000D+00 0.000000000000D+00
17 16 10 18 20  0  0.0-0.200808513910D-03 0.682121026330D-12 0.000000000000D+00
    0.750000000000D+02-0.733750000000D+02 0.381551607442D-08 0.844131445257D+00
   -0.383146107197D-05 0.113012797665D-01 0.126063823700D-04 0.515376757240D+04
    0.244800000000D+06-0.175088644028D-06 0.485670471953D+00-0.149011611938D-07
    0.978068389206D+00 0.146250000000D+03-0.191900166944D+01-0.783889795014D-08
    0.169292766009D-09 0.100000000000D+01 0.191900000000D+04 0.000000000000D+00
    0.290000000000D+01 0.000000000000D+00-0.107102096081D-07 0.750000000000D+02
    0.240240000000D+06 0.400000000000D+01 0.000000000000D+00 0.000000000000D+00
18 16 10 18 20  0  0.0 0.568150077015D-03 0.341060513165D-11 0.000000000000D+00
    0.600000000000D+01-0.456250000000D+02 0.566559313755D-08 0.242201376102D+01
   -0.250525772572D-05 0.172715353547D-01 0.592321157455D-05 0.515371733475D+04
    0.244800000000D+06 0.111758708954D-06 0.249677870714D+01-0.236555933952D-06
    0.925247148440D+00 0.243250000000D+03-0.185564163997D+01-0.836141971527D-08
   -0.476805575152D-09 0.100000000000D+01 0.191900000000D+04 0.000000000000D+00
    0.200000000000D+01 0.000000000000D+00-0.111758708954D-07 0.600000000000D+01
    0.237600000000D+06 0.400000000000D+01 0.000000000000D+00 0.000000000000D+00
19 16 10 18 20  0  0.0-0.521515961736D-03 0.568434188608D-12 0.000000000000D+00
    0.680000000000D+02-0.638750000000D+02 0.384623163956D-08-0.229769665329D+01
   -0.349059700966D-05 0.104124596110D-01 0.121071934700D-04 0.515363941765D+04
    0.244800000000D+06 0.100582838059D-06 0.534036634164D+00-0.800937414169D-07
    0.975196992618D+00 0.149625000000D+03 0.877571628392D+00-0.753102798326D-08
    0.403588239642D-09 0.100000000000D+01 0.191900000000D+04 0.000000000000D+00
    0.200000000000D+01 0.000000000000D+00-0.149011611938D-07 0.680000000000D+02
    0.243570000000D+06 0.400000000000D+01 0.000000000000D+00 0.000000000000D+00
20 16 10 18 20  0  0.0 0.441484153271D-03 0.193267624127D-11 0.000000000000D+00
    0.740000000000D+02-0.354375000000D+02 0.585845831402D-08-0.106097504644D-01
   -0.173412263393D-05 0.471837364603D-02 0.595487654209D-05 0.515358732414D+04
    0.244800000000D+06 0.372529029846D-08 0.244516930529D+01-0.242143869400D-07
    0.926505110234D+00 0.247093750000D+03 0.146551387379D+01-0.884286834096D-08
   -0.365015204348D-09 0.100000000000D+01 0.191900000000D+04 0.000000000000D+00
    0.200000000000D+01 0.000000000000D+00-0.838190317154D-08 0.740000000000D+02
    0.237600000000D+06 0.400000000000D+01 0.000000000000D+00 0.000000000000D+00
